API VERSION: 1.2
API SOURCE: NASA/JPL Horizons API



*******************************************************************************
Ephemeris / API_USER Sun Dec 15 22:05:14 2024 Pasadena, USA      / Horizons
*******************************************************************************
Target body name: Mars Barycenter (4)             {source: DE441}
Center body name: Solar System Barycenter (0)     {source: DE441}
Center-site name: BODY CENTER
*******************************************************************************
Start time      : A.D. 2001-Jan-01 00:00:00.0000 TDB
Stop  time      : A.D. 2005-Oct-10 00:00:00.0000 TDB
Step-size       : 7200 minutes
*******************************************************************************
Center geodetic : 0.0, 0.0, 0.0                   {E-lon(deg),Lat(deg),Alt(km)}
Center cylindric: 0.0, 0.0, 0.0                   {E-lon(deg),Dxy(km),Dz(km)}
Center radii    : (undefined)
Output units    : KM-S
Calendar mode   : Mixed Julian/Gregorian
Output type     : GEOMETRIC cartesian states
Output format   : 2 (position and velocity)
Reference frame : Ecliptic of J2000.0
*******************************************************************************
            JDTDB,            Calendar Date (TDB),                      X,                      Y,                      Z,                     VX,                     VY,                     VZ,
**************************************************************************************************************************************************************************************************
$$SOE
2452985.500000000, A.D. 2003-Dec-12 00:00:00.0000,  1.675915937502386E+08,  1.378591250394295E+08, -1.215881573293462E+06, -1.451429379065972E+01,  2.074589024967824E+01,  7.909390821666253E-01,
2452990.500000000, A.D. 2003-Dec-17 00:00:00.0000,  1.611220272877418E+08,  1.466506415790662E+08, -8.728743353287056E+05, -1.542951074131612E+01,  1.994902446861274E+01,  7.967262466481522E-01,
2452995.500000000, A.D. 2003-Dec-22 00:00:00.0000,  1.542674108395830E+08,  1.550896521862380E+08, -5.277937375811711E+05, -1.629671920368786E+01,  1.911445015759315E+01,  8.005438699221710E-01,
2453000.500000000, A.D. 2003-Dec-27 00:00:00.0000,  1.470487436652552E+08,  1.631605550994278E+08, -1.814825776644126E+05, -1.711475632123921E+01,  1.824535128735600E+01,  8.024300934267146E-01,
2453005.500000000, A.D. 2004-Jan-01 00:00:00.0000,  1.394874776858224E+08,  1.708491192640322E+08,  1.652339442935809E+05, -1.788268740361575E+01,  1.734488691676486E+01,  8.024281401179003E-01,
2453010.500000000, A.D. 2004-Jan-06 00:00:00.0000,  1.316054214435403E+08,  1.781424700392787E+08,  5.115502853754684E+05, -1.859979405877125E+01,  1.641617517618420E+01,  8.005856898866028E-01,
2453015.500000000, A.D. 2004-Jan-11 00:00:00.0000,  1.234246493834180E+08,  1.850290684109198E+08,  8.566823534797430E+05, -1.926556147233048E+01,  1.546227920889222E+01,  7.969542729719441E-01,
2453020.500000000, A.D. 2004-Jan-16 00:00:00.0000,  1.149674167615479E+08,  1.914986845451687E+08,  1.199869044120565E+06, -1.987966512224654E+01,  1.448619502469896E+01,  7.915886889192301E-01,
2453025.500000000, A.D. 2004-Jan-21 00:00:00.0000,  1.062560803709848E+08,  1.975423664991567E+08,  1.540373532850623E+06, -2.044195716748967E+01,  1.349084121176305E+01,  7.845464569982328E-01,
2453030.500000000, A.D. 2004-Jan-26 00:00:00.0000,  9.731302518089271E+07,  2.031524048741005E+08,  1.877484337681562E+06, -2.095245271503316E+01,  1.247905042499581E+01,  7.758873013289636E-01,
2453035.500000000, A.D. 2004-Jan-31 00:00:00.0000,  8.816059690183462E+07,  2.083222941565270E+08,  2.210516166916415E+06, -2.141131614490142E+01,  1.145356254552388E+01,  7.656726725056409E-01,
2453040.500000000, A.D. 2004-Feb-05 00:00:00.0000,  7.882104041783471E+07,  2.130466914435624E+08,  2.538810568351328E+06, -2.181884764786215E+01,  1.041701938874029E+01,  7.539653064122400E-01,
2453045.500000000, A.D. 2004-Feb-10 00:00:00.0000,  6.931644396416149E+07,  2.173213731922698E+08,  2.861736395883709E+06, -2.217547010749729E+01,  9.371960824713188E+00,  7.408288199678834E-01,
2453050.500000000, A.D. 2004-Feb-15 00:00:00.0000,  5.966868887680928E+07,  2.211431905722121E+08,  3.178690109351203E+06, -2.248171644119282E+01,  8.320822167245838E+00,  7.263273432344719E-01,
2453055.500000000, A.D. 2004-Feb-20 00:00:00.0000,  4.989940469310706E+07,  2.245100239389464E+08,  3.489095923291400E+06, -2.273821750095782E+01,  7.265932693272626E+00,  7.105251879727419E-01,
2453060.500000000, A.D. 2004-Feb-25 00:00:00.0000,  4.002992934307253E+07,  2.274207368900881E+08,  3.792405820557609E+06, -2.294569061570474E+01,  6.209515172758294E+00,  6.934865536043846E-01,
2453065.500000000, A.D. 2004-Mar-01 00:00:00.0000,  3.008127414212381E+07,  2.298751303181124E+08,  4.088099447125480E+06, -2.310492882603341E+01,  5.153686307569137E+00,  6.752752711763288E-01,
2453070.500000000, A.D. 2004-Mar-06 00:00:00.0000,  2.007409328100977E+07,  2.318738968313100E+08,  4.375683904293254E+06, -2.321679082990735E+01,  4.100457979598694E+00,  6.559545839406498E-01,
2453075.500000000, A.D. 2004-Mar-11 00:00:00.0000,  1.002865750560994E+07,  2.334185758690003E+08,  4.654693453421652E+06, -2.328219163874684E+01,  3.051739197370895E+00,  6.355869612126579E-01,
2453080.500000000, A.D. 2004-Mar-16 00:00:00.0000, -3.516831953308359E+04,  2.345115097873533E+08,  4.924689146750972E+06, -2.330209394088088E+01,  2.009338623830444E+00,  6.142339416934129E-01,
2453085.500000000, A.D. 2004-Mar-21 00:00:00.0000, -1.009794406903023E+07,  2.351558011431689E+08,  5.185258396290392E+06, -2.327750016912381E+01,  9.749675780537463E-01,  5.919560028991362E-01,
2453090.500000000, A.D. 2004-Mar-26 00:00:00.0000, -2.014066993771267E+07,  2.353552713595219E+08,  5.436014491383001E+06, -2.320944525948202E+01, -4.975658480057579E-02,  5.688124536238637E-01,
2453095.500000000, A.D. 2004-Mar-31 00:00:00.0000, -3.014479903864656E+07,  2.351144209147647E+08,  5.676596074434012E+06, -2.309899008046307E+01, -1.063306818726681E+00,  5.448613479206890E-01,
2453100.500000000, A.D. 2004-Apr-05 00:00:00.0000, -4.009224730769280E+07,  2.344383911544304E+08,  5.906666584383681E+06, -2.294721553394931E+01, -2.064242535042441E+00,  5.201594217479502E-01,
2453105.500000000, A.D. 2004-Apr-10 00:00:00.0000, -4.996540100132427E+07,  2.333329278051868E+08,  6.125913677234888E+06, -2.275521730424251E+01, -3.051205578645574E+00,  4.947620492492394E-01,
2453110.500000000, A.D. 2004-Apr-15 00:00:00.0000, -5.974712205623251E+07,  2.318043462554290E+08,  6.334048631117940E+06, -2.252410120170592E+01, -4.022916085637882E+00,  4.687232145090989E-01,
2453115.500000000, A.D. 2004-Apr-20 00:00:00.0000, -6.942075155945943E+07,  2.298594986381884E+08,  6.530805742336541E+06, -2.225497906738015E+01, -4.978168290585621E+00,  4.420954979759735E-01,
2453120.500000000, A.D. 2004-Apr-25 00:00:00.0000, -7.897011156549551E+07,  2.275057427281376E+08,  6.715941718546212E+06, -2.194896521030088E+01, -5.915826326558442E+00,  4.149300765250006E-01,
2453125.500000000, A.D. 2004-Apr-30 00:00:00.0000, -8.837950548342760E+07,  2.247509126486557E+08,  6.889235074614078E+06, -2.160717334411594E+01, -6.834820050272043E+00,  3.872767355125291E-01,
2453130.500000000, A.D. 2004-May-05 00:00:00.0000, -9.763371724222651E+07,  2.216032913717082E+08,  7.050485535978034E+06, -2.123071398795526E+01, -7.734140921443359E+00,  3.591838911903080E-01,
2453135.500000000, A.D. 2004-May-10 00:00:00.0000, -1.067180094273474E+08,  2.180715849814837E+08,  7.199513453666821E+06, -2.082069229756580E+01, -8.612837961800970E+00,  3.306986220530486E-01,
2453140.500000000, A.D. 2004-May-15 00:00:00.0000, -1.156181205674221E+08,  2.141648986626115E+08,  7.336159234561279E+06, -2.037820629410706E+01, -9.470013815127896E+00,  3.018667078525050E-01,
2453145.500000000, A.D. 2004-May-20 00:00:00.0000, -1.243202617360628E+08,  2.098927143654048E+08,  7.460282789958745E+06, -1.990434545952319E+01, -1.030482092583482E+01,  2.727326751410706E-01,
2453150.500000000, A.D. 2004-May-25 00:00:00.0000, -1.328111126207110E+08,  2.052648700937644E+08,  7.571763005037934E+06, -1.940018966901878E+01, -1.111645785014527E+01,  2.433398483289477E-01,
2453155.500000000, A.D. 2004-May-30 00:00:00.0000, -1.410778171981003E+08,  2.002915407559609E+08,  7.670497231405422E+06, -1.886680843286271E+01, -1.190416571100200E+01,  2.137304053433020E-01,
2453160.500000000, A.D. 2004-Jun-04 00:00:00.0000, -1.491079791442744E+08,  1.949832205142557E+08,  7.756400804534167E+06, -1.830526042148218E+01, -1.266722480534870E+01,  1.839454370847688E-01,
2453165.500000000, A.D. 2004-Jun-09 00:00:00.0000, -1.568896570962451E+08,  1.893507065660344E+08,  7.829406587578699E+06, -1.771659324965115E+01, -1.340495137045016E+01,  1.540250099757543E-01,
2453170.500000000, A.D. 2004-Jun-14 00:00:00.0000, -1.644113598723943E+08,  1.834050842866064E+08,  7.889464542766489E+06, -1.710184349790877E+01, -1.411669451423205E+01,  1.240082309796575E-01,
2453175.500000000, A.D. 2004-Jun-19 00:00:00.0000, -1.716620417499893E+08,  1.771577136621345E+08,  7.936541331302337E+06, -1.646203695287747E+01, -1.480183331226023E+01,  9.393331447491438E-02,
2453180.500000000, A.D. 2004-Jun-24 00:00:00.0000, -1.786310978910652E+08,  1.706202169409580E+08,  7.970619942425035E+06, -1.579818905108284E+01, -1.545977406923872E+01,  6.383765020513543E-02,
2453185.500000000, A.D. 2004-Jun-29 00:00:00.0000, -1.853083600003112E+08,  1.638044674331645E+08,  7.991699351927318E+06, -1.511130550457620E+01, -1.608994774158991E+01,  3.375787169833444E-02,
2453190.500000000, A.D. 2004-Jul-04 00:00:00.0000, -1.916840922870495E+08,  1.567225793874538E+08,  7.999794210397981E+06, -1.440238307914237E+01, -1.669180753041976E+01,  3.729925600093331E-03,
2453195.500000000, A.D. 2004-Jul-09 00:00:00.0000, -1.977489877945950E+08,  1.493868988683021E+08,  7.994934561680734E+06, -1.367241051810990E+01, -1.726482665773168E+01, -2.621085790681565E-02,
